KUIPER-00218            
1 67780U 26030S   26062.58583348  .00037272  00000+0  10902-2 0  9993
2 67780  51.8830 248.6616 0006400  34.0577 326.0818 15.34888543  4151
KUIPER-00220            
1 67781U 26030T   26062.59143837  .00035964  00000+0  10663-2 0  9990
2 67781  51.8796 248.6916 0008143  39.0718 321.0854 15.34466757  4158
KUIPER-00222            
1 67782U 26030U   26062.61118358  .00017852  00000+0  57226-3 0  9997
2 67782  51.8795 248.8165 0017689  41.2105 319.0211 15.32281049  4157
KUIPER-00223            
1 67783U 26030V   26062.59761239  .00026104  00000+0  78974-3 0  9990
2 67783  51.8813 248.7355 0012149  43.2526 316.9411 15.33956877  4151
KUIPER-00225            
1 67784U 26030W   26062.57774065  .00035897  00000+0  10272-2 0  9995
2 67784  51.8809 248.6045 0003902  23.5564 336.5600 15.35607268  4159
KUIPER-00226            
1 67785U 26030X   26062.62118107 -.00005180  00000+0 -15554-3 0  9994
2 67785  51.8807 248.8811 0019539  55.3612 304.9211 15.31335086  4150
KUIPER-00259            
1 67786U 26030Y   26062.58774840  .00035370  00000+0  10384-2 0  9999
2 67786  51.8802 248.6680 0008040  32.6457 327.5024 15.34786214  4157
KUIPER-00260            
1 67787U 26030Z   26062.57074507  .00037005  00000+0  10398-2 0  9994
2 67787  51.8793 248.5575 0000875  69.7544 290.3536 15.36166005  4062
KUIPER-00262            
1 67788U 26030AA  26062.56760146  .00037846  00000+0  10525-2 0  9990
2 67788  51.8810 248.5405 0000490 144.9331 215.1688 15.36478514  4152
KUIPER-00266            
1 67789U 26030AB  26062.62535668  .00010610  00000+0  35847-3 0  9992
2 67789  51.8809 248.9059 0022478  55.2687 305.0410 15.30981659  4153
KUIPER-00268            
1 67790U 26030AC  26062.57534502  .00033124  00000+0  94600-3 0  9991
2 67790  51.8843 248.5954 0002198  33.8026 326.3100 15.35710905  4150
KUIPER-00270            
1 67791U 26030AD  26062.59265511  .00026489  00000+0  79163-3 0  9998
2 67791  51.8798 248.6986 0009959  39.4838 320.6871 15.34359346  4150
KUIPER-00274            
1 67792U 26030AE  26062.61523230 -.00014488  00000+0 -45446-3 0  9992
2 67792  51.8814 248.8484 0017477  52.3140 307.9426 15.31594334  4158
KUIPER-00275            
1 67793U 26030AF  26062.59012782  .00033966  00000+0  10086-2 0  9996
2 67793  51.8832 248.6913 0008903  35.8247 324.3335 15.34439442  4155
KUIPER-00276            
1 67794U 26030AG  26062.61912800 -.00033404  00000+0 -10721-2 0  9995
2 67794  51.8812 248.8714 0018611  49.5103 310.7499 15.31399109  4157
KUIPER-00279            
1 67795U 26030AH  26062.58415542  .00036457  00000+0  10599-2 0  9995
2 67795  51.8796 248.6432 0006298  31.2395 328.8964 15.35091276  4158
