[{"OBJECT_NAME":"KUIPER-00218","OBJECT_ID":"2026-030S","EPOCH":"2026-03-03T14:03:36.012672","MEAN_MOTION":15.34888543,"ECCENTRICITY":0.00064002,"INCLINATION":51.883,"RA_OF_ASC_NODE":248.6616,"ARG_OF_PERICENTER":34.0577,"MEAN_ANOMALY":326.0818,"EPHEMERIS_TYPE":0,"CLASSIFICATION_TYPE":"U","NORAD_CAT_ID":67780,"ELEMENT_SET_NO":999,"REV_AT_EPOCH":415,"BSTAR":0.0010901986,"MEAN_MOTION_DOT":0.00037272,"MEAN_MOTION_DDOT":0},{"OBJECT_NAME":"KUIPER-00220","OBJECT_ID":"2026-030T","EPOCH":"2026-03-03T14:11:40.275168","MEAN_MOTION":15.34466757,"ECCENTRICITY":0.00081434,"INCLINATION":51.8796,"RA_OF_ASC_NODE":248.6916,"ARG_OF_PERICENTER":39.0718,"MEAN_ANOMALY":321.0854,"EPHEMERIS_TYPE":0,"CLASSIFICATION_TYPE":"U","NORAD_CAT_ID":67781,"ELEMENT_SET_NO":999,"REV_AT_EPOCH":415,"BSTAR":0.0010662818,"MEAN_MOTION_DOT":0.00035964,"MEAN_MOTION_DDOT":0},{"OBJECT_NAME":"KUIPER-00222","OBJECT_ID":"2026-030U","EPOCH":"2026-03-03T14:40:06.261312","MEAN_MOTION":15.32281049,"ECCENTRICITY":0.00176894,"INCLINATION":51.8795,"RA_OF_ASC_NODE":248.8165,"ARG_OF_PERICENTER":41.2105,"MEAN_ANOMALY":319.0211,"EPHEMERIS_TYPE":0,"CLASSIFICATION_TYPE":"U","NORAD_CAT_ID":67782,"ELEMENT_SET_NO":999,"REV_AT_EPOCH":415,"BSTAR":0.00057226195,"MEAN_MOTION_DOT":0.00017852,"MEAN_MOTION_DDOT":0},{"OBJECT_NAME":"KUIPER-00223","OBJECT_ID":"2026-030V","EPOCH":"2026-03-03T14:20:33.710496","MEAN_MOTION":15.33956877,"ECCENTRICITY":0.00121493,"INCLINATION":51.8813,"RA_OF_ASC_NODE":248.7355,"ARG_OF_PERICENTER":43.2526,"MEAN_ANOMALY":316.9411,"EPHEMERIS_TYPE":0,"CLASSIFICATION_TYPE":"U","NORAD_CAT_ID":67783,"ELEMENT_SET_NO":999,"REV_AT_EPOCH":415,"BSTAR":0.00078973599,"MEAN_MOTION_DOT":0.00026104,"MEAN_MOTION_DDOT":0},{"OBJECT_NAME":"KUIPER-00225","OBJECT_ID":"2026-030W","EPOCH":"2026-03-03T13:51:56.792160","MEAN_MOTION":15.35607268,"ECCENTRICITY":0.00039027,"INCLINATION":51.8809,"RA_OF_ASC_NODE":248.6045,"ARG_OF_PERICENTER":23.5564,"MEAN_ANOMALY":336.56,"EPHEMERIS_TYPE":0,"CLASSIFICATION_TYPE":"U","NORAD_CAT_ID":67784,"ELEMENT_SET_NO":999,"REV_AT_EPOCH":415,"BSTAR":0.0010271602,"MEAN_MOTION_DOT":0.00035897,"MEAN_MOTION_DDOT":0},{"OBJECT_NAME":"KUIPER-00226","OBJECT_ID":"2026-030X","EPOCH":"2026-03-03T14:54:30.044448","MEAN_MOTION":15.31335086,"ECCENTRICITY":0.00195391,"INCLINATION":51.8807,"RA_OF_ASC_NODE":248.8811,"ARG_OF_PERICENTER":55.3612,"MEAN_ANOMALY":304.9211,"EPHEMERIS_TYPE":0,"CLASSIFICATION_TYPE":"U","NORAD_CAT_ID":67785,"ELEMENT_SET_NO":999,"REV_AT_EPOCH":415,"BSTAR":-0.00015554033,"MEAN_MOTION_DOT":-5.18e-5,"MEAN_MOTION_DDOT":0},{"OBJECT_NAME":"KUIPER-00259","OBJECT_ID":"2026-030Y","EPOCH":"2026-03-03T14:06:21.461760","MEAN_MOTION":15.34786214,"ECCENTRICITY":0.00080402,"INCLINATION":51.8802,"RA_OF_ASC_NODE":248.668,"ARG_OF_PERICENTER":32.6457,"MEAN_ANOMALY":327.5024,"EPHEMERIS_TYPE":0,"CLASSIFICATION_TYPE":"U","NORAD_CAT_ID":67786,"ELEMENT_SET_NO":999,"REV_AT_EPOCH":415,"BSTAR":0.0010383981,"MEAN_MOTION_DOT":0.0003537,"MEAN_MOTION_DDOT":0},{"OBJECT_NAME":"KUIPER-00260","OBJECT_ID":"2026-030Z","EPOCH":"2026-03-03T13:41:52.374048","MEAN_MOTION":15.36166005,"ECCENTRICITY":8.753e-5,"INCLINATION":51.8793,"RA_OF_ASC_NODE":248.5575,"ARG_OF_PERICENTER":69.7544,"MEAN_ANOMALY":290.3536,"EPHEMERIS_TYPE":0,"CLASSIFICATION_TYPE":"U","NORAD_CAT_ID":67787,"ELEMENT_SET_NO":999,"REV_AT_EPOCH":406,"BSTAR":0.0010398064,"MEAN_MOTION_DOT":0.00037005,"MEAN_MOTION_DDOT":0},{"OBJECT_NAME":"KUIPER-00262","OBJECT_ID":"2026-030AA","EPOCH":"2026-03-03T13:37:20.766144","MEAN_MOTION":15.36478514,"ECCENTRICITY":4.907e-5,"INCLINATION":51.881,"RA_OF_ASC_NODE":248.5405,"ARG_OF_PERICENTER":144.9331,"MEAN_ANOMALY":215.1688,"EPHEMERIS_TYPE":0,"CLASSIFICATION_TYPE":"U","NORAD_CAT_ID":67788,"ELEMENT_SET_NO":999,"REV_AT_EPOCH":415,"BSTAR":0.0010524729,"MEAN_MOTION_DOT":0.00037846,"MEAN_MOTION_DDOT":0},{"OBJECT_NAME":"KUIPER-00266","OBJECT_ID":"2026-030AB","EPOCH":"2026-03-03T15:00:30.817152","MEAN_MOTION":15.30981659,"ECCENTRICITY":0.00224788,"INCLINATION":51.8809,"RA_OF_ASC_NODE":248.9059,"ARG_OF_PERICENTER":55.2687,"MEAN_ANOMALY":305.041,"EPHEMERIS_TYPE":0,"CLASSIFICATION_TYPE":"U","NORAD_CAT_ID":67789,"ELEMENT_SET_NO":999,"REV_AT_EPOCH":415,"BSTAR":0.00035847297,"MEAN_MOTION_DOT":0.0001061,"MEAN_MOTION_DDOT":0},{"OBJECT_NAME":"KUIPER-00268","OBJECT_ID":"2026-030AC","EPOCH":"2026-03-03T13:48:29.809728","MEAN_MOTION":15.35710905,"ECCENTRICITY":0.00021985,"INCLINATION":51.8843,"RA_OF_ASC_NODE":248.5954,"ARG_OF_PERICENTER":33.8026,"MEAN_ANOMALY":326.31,"EPHEMERIS_TYPE":0,"CLASSIFICATION_TYPE":"U","NORAD_CAT_ID":67790,"ELEMENT_SET_NO":999,"REV_AT_EPOCH":415,"BSTAR":0.00094600384,"MEAN_MOTION_DOT":0.00033124,"MEAN_MOTION_DDOT":0},{"OBJECT_NAME":"KUIPER-00270","OBJECT_ID":"2026-030AD","EPOCH":"2026-03-03T14:13:25.401504","MEAN_MOTION":15.34359346,"ECCENTRICITY":0.00099595,"INCLINATION":51.8798,"RA_OF_ASC_NODE":248.6986,"ARG_OF_PERICENTER":39.4838,"MEAN_ANOMALY":320.6871,"EPHEMERIS_TYPE":0,"CLASSIFICATION_TYPE":"U","NORAD_CAT_ID":67791,"ELEMENT_SET_NO":999,"REV_AT_EPOCH":415,"BSTAR":0.00079162746,"MEAN_MOTION_DOT":0.00026489,"MEAN_MOTION_DDOT":0},{"OBJECT_NAME":"KUIPER-00274","OBJECT_ID":"2026-030AE","EPOCH":"2026-03-03T14:45:56.070720","MEAN_MOTION":15.31594334,"ECCENTRICITY":0.00174778,"INCLINATION":51.8814,"RA_OF_ASC_NODE":248.8484,"ARG_OF_PERICENTER":52.314,"MEAN_ANOMALY":307.9426,"EPHEMERIS_TYPE":0,"CLASSIFICATION_TYPE":"U","NORAD_CAT_ID":67792,"ELEMENT_SET_NO":999,"REV_AT_EPOCH":415,"BSTAR":-0.0004544557,"MEAN_MOTION_DOT":-0.00014488,"MEAN_MOTION_DDOT":0},{"OBJECT_NAME":"KUIPER-00275","OBJECT_ID":"2026-030AF","EPOCH":"2026-03-03T14:09:47.043648","MEAN_MOTION":15.34439442,"ECCENTRICITY":0.00089032,"INCLINATION":51.8832,"RA_OF_ASC_NODE":248.6913,"ARG_OF_PERICENTER":35.8247,"MEAN_ANOMALY":324.3335,"EPHEMERIS_TYPE":0,"CLASSIFICATION_TYPE":"U","NORAD_CAT_ID":67793,"ELEMENT_SET_NO":999,"REV_AT_EPOCH":415,"BSTAR":0.0010086333,"MEAN_MOTION_DOT":0.00033966,"MEAN_MOTION_DDOT":0},{"OBJECT_NAME":"KUIPER-00276","OBJECT_ID":"2026-030AG","EPOCH":"2026-03-03T14:51:32.659200","MEAN_MOTION":15.31399109,"ECCENTRICITY":0.00186113,"INCLINATION":51.8812,"RA_OF_ASC_NODE":248.8714,"ARG_OF_PERICENTER":49.5103,"MEAN_ANOMALY":310.7499,"EPHEMERIS_TYPE":0,"CLASSIFICATION_TYPE":"U","NORAD_CAT_ID":67794,"ELEMENT_SET_NO":999,"REV_AT_EPOCH":415,"BSTAR":-0.0010721152,"MEAN_MOTION_DOT":-0.00033404,"MEAN_MOTION_DDOT":0},{"OBJECT_NAME":"KUIPER-00279","OBJECT_ID":"2026-030AH","EPOCH":"2026-03-03T14:01:11.028288","MEAN_MOTION":15.35091276,"ECCENTRICITY":0.00062987,"INCLINATION":51.8796,"RA_OF_ASC_NODE":248.6432,"ARG_OF_PERICENTER":31.2395,"MEAN_ANOMALY":328.8964,"EPHEMERIS_TYPE":0,"CLASSIFICATION_TYPE":"U","NORAD_CAT_ID":67795,"ELEMENT_SET_NO":999,"REV_AT_EPOCH":415,"BSTAR":0.0010598863,"MEAN_MOTION_DOT":0.00036457,"MEAN_MOTION_DDOT":0}]
